{
  "type": "FeatureCollection",
  "features": [
    {
      "type": "Feature",
      "properties": {
        "norad_id": 67145,
        "name": "KUIPER-00204",
        "group": "last-30-days",
        "lat": -5.945213366680596,
        "lon": -117.71561506032828,
        "alt_km": 458.5094366631847,
        "timestamp": "2025-12-26T17:24:53.444602+00:00",
        "meta_object_name": "KUIPER-00204",
        "meta_object_id": "2025-301N",
        "meta_epoch": "2025-12-26T05:40:34.003488",
        "meta_mean_motion": 15.36552666,
        "meta_eccentricity": 0.00020267,
        "meta_inclination": 51.8746,
        "meta_ra_of_asc_node": 59.9562,
        "meta_arg_of_pericenter": 61.7171,
        "meta_mean_anomaly": 298.402,
        "meta_ephemeris_type": 0,
        "meta_classification_type": "U",
        "meta_norad_cat_id": 67145,
        "meta_element_set_no": 999,
        "meta_rev_at_epoch": 255,
        "meta_bstar": 0.00076412733,
        "meta_mean_motion_dot": 0.000274,
        "meta_mean_motion_ddot": 0,
        "tle_line1": "1 67145U 25301N   25360.23650467  .00027400  00000+0  76413-3 0  9999",
        "tle_line2": "2 67145  51.8746  59.9562 0002026  61.7171 298.4020 15.36552666  2557"
      },
      "geometry": {
        "type": "Point",
        "coordinates": [
          -117.71561506032828,
          -5.945213366680596
        ]
      }
    },
    {
      "type": "Feature",
      "properties": {
        "norad_id": 67146,
        "name": "KUIPER-00210",
        "group": "last-30-days",
        "lat": 51.36073732621755,
        "lon": 158.3867827877361,
        "alt_km": 452.14133711040176,
        "timestamp": "2025-12-26T17:24:53.444614+00:00",
        "meta_object_name": "KUIPER-00210",
        "meta_object_id": "2025-301P",
        "meta_epoch": "2025-12-26T06:03:08.258688",
        "meta_mean_motion": 15.34182203,
        "meta_eccentricity": 0.00105902,
        "meta_inclination": 51.8604,
        "meta_ra_of_asc_node": 60.0669,
        "meta_arg_of_pericenter": 150.565,
        "meta_mean_anomaly": 209.5934,
        "meta_ephemeris_type": 0,
        "meta_classification_type": "U",
        "meta_norad_cat_id": 67146,
        "meta_element_set_no": 999,
        "meta_rev_at_epoch": 261,
        "meta_bstar": 0.00083974478,
        "meta_mean_motion_dot": 0.00027975,
        "meta_mean_motion_ddot": 0,
        "tle_line1": "1 67146U 25301P   25360.25217892  .00027975  00000+0  83974-3 0  9990",
        "tle_line2": "2 67146  51.8604  60.0669 0010590 150.5650 209.5934 15.34182203  2614"
      },
      "geometry": {
        "type": "Point",
        "coordinates": [
          158.3867827877361,
          51.36073732621755
        ]
      }
    },
    {
      "type": "Feature",
      "properties": {
        "norad_id": 67147,
        "name": "KUIPER-00221",
        "group": "last-30-days",
        "lat": 18.39148274554186,
        "lon": -137.47211301139814,
        "alt_km": 454.13791032110385,
        "timestamp": "2025-12-26T17:24:53.444626+00:00",
        "meta_object_name": "KUIPER-00221",
        "meta_object_id": "2025-301Q",
        "meta_epoch": "2025-12-26T05:48:20.067552",
        "meta_mean_motion": 15.35746838,
        "meta_eccentricity": 0.00048528,
        "meta_inclination": 51.8728,
        "meta_ra_of_asc_node": 60.0002,
        "meta_arg_of_pericenter": 114.5931,
        "meta_mean_anomaly": 245.5561,
        "meta_ephemeris_type": 0,
        "meta_classification_type": "U",
        "meta_norad_cat_id": 67147,
        "meta_element_set_no": 999,
        "meta_rev_at_epoch": 244,
        "meta_bstar": 0.0010525439,
        "meta_mean_motion_dot": 0.00036969,
        "meta_mean_motion_ddot": 0,
        "tle_line1": "1 67147U 25301Q   25360.24189893  .00036969  00000+0  10525-2 0  9993",
        "tle_line2": "2 67147  51.8728  60.0002 0004852 114.5931 245.5561 15.35746838  2447"
      },
      "geometry": {
        "type": "Point",
        "coordinates": [
          -137.47211301139814,
          18.39148274554186
        ]
      }
    },
    {
      "type": "Feature",
      "properties": {
        "norad_id": 67148,
        "name": "KUIPER-00232",
        "group": "last-30-days",
        "lat": -11.037622828575957,
        "lon": -113.60426553027291,
        "alt_km": 458.6831665161035,
        "timestamp": "2025-12-26T17:24:53.444636+00:00",
        "meta_object_name": "KUIPER-00232",
        "meta_object_id": "2025-301R",
        "meta_epoch": "2025-12-26T05:38:56.447520",
        "meta_mean_motion": 15.36711464,
        "meta_eccentricity": 0.00016144,
        "meta_inclination": 51.8747,
        "meta_ra_of_asc_node": 59.9527,
        "meta_arg_of_pericenter": 50.4264,
        "meta_mean_anomaly": 309.6865,
        "meta_ephemeris_type": 0,
        "meta_classification_type": "U",
        "meta_norad_cat_id": 67148,
        "meta_element_set_no": 999,
        "meta_rev_at_epoch": 244,
        "meta_bstar": 0.00096056868,
        "meta_mean_motion_dot": 0.00034755,
        "meta_mean_motion_ddot": 0,
        "tle_line1": "1 67148U 25301R   25360.23537555  .00034755  00000+0  96057-3 0  9991",
        "tle_line2": "2 67148  51.8747  59.9527 0001614  50.4264 309.6865 15.36711464  2445"
      },
      "geometry": {
        "type": "Point",
        "coordinates": [
          -113.60426553027291,
          -11.037622828575957
        ]
      }
    },
    {
      "type": "Feature",
      "properties": {
        "norad_id": 67149,
        "name": "KUIPER-00241",
        "group": "last-30-days",
        "lat": 2.9280898850485593,
        "lon": -124.680754361819,
        "alt_km": 457.56141530389687,
        "timestamp": "2025-12-26T17:24:53.444646+00:00",
        "meta_object_name": "KUIPER-00241",
        "meta_object_id": "2025-301S",
        "meta_epoch": "2025-12-26T05:43:22.960416",
        "meta_mean_motion": 15.36265873,
        "meta_eccentricity": 0.00028152,
        "meta_inclination": 51.8742,
        "meta_ra_of_asc_node": 59.9742,
        "meta_arg_of_pericenter": 80.0264,
        "meta_mean_anomaly": 280.104,
        "meta_ephemeris_type": 0,
        "meta_classification_type": "U",
        "meta_norad_cat_id": 67149,
        "meta_element_set_no": 999,
        "meta_rev_at_epoch": 277,
        "meta_bstar": 0.0011783928,
        "meta_mean_motion_dot": 0.00042156,
        "meta_mean_motion_ddot": 0,
        "tle_line1": "1 67149U 25301S   25360.23846019  .00042156  00000+0  11784-2 0  9997",
        "tle_line2": "2 67149  51.8742  59.9742 0002815  80.0264 280.1040 15.36265873  2775"
      },
      "geometry": {
        "type": "Point",
        "coordinates": [
          -124.680754361819,
          2.9280898850485593
        ]
      }
    },
    {
      "type": "Feature",
      "properties": {
        "norad_id": 67150,
        "name": "KUIPER-00245",
        "group": "last-30-days",
        "lat": 21.02594851269408,
        "lon": -139.89915492619122,
        "alt_km": 453.7750621510477,
        "timestamp": "2025-12-26T17:24:53.444658+00:00",
        "meta_object_name": "KUIPER-00245",
        "meta_object_id": "2025-301T",
        "meta_epoch": "2025-12-26T05:49:11.600832",
        "meta_mean_motion": 15.3565545,
        "meta_eccentricity": 0.00046155,
        "meta_inclination": 51.8743,
        "meta_ra_of_asc_node": 60.0028,
        "meta_arg_of_pericenter": 123.4828,
        "meta_mean_anomaly": 236.6599,
        "meta_ephemeris_type": 0,
        "meta_classification_type": "U",
        "meta_norad_cat_id": 67150,
        "meta_element_set_no": 999,
        "meta_rev_at_epoch": 244,
        "meta_bstar": 0.00068679542,
        "meta_mean_motion_dot": 0.00023875,
        "meta_mean_motion_ddot": 0,
        "tle_line1": "1 67150U 25301T   25360.24249538  .00023875  00000+0  68680-3 0  9998",
        "tle_line2": "2 67150  51.8743  60.0028 0004615 123.4828 236.6599 15.35655450  2448"
      },
      "geometry": {
        "type": "Point",
        "coordinates": [
          -139.89915492619122,
          21.02594851269408
        ]
      }
    },
    {
      "type": "Feature",
      "properties": {
        "norad_id": 67151,
        "name": "KUIPER-00246",
        "group": "last-30-days",
        "lat": 11.690384116255114,
        "lon": -131.7084958655833,
        "alt_km": 455.5542816763327,
        "timestamp": "2025-12-26T17:24:53.444670+00:00",
        "meta_object_name": "KUIPER-00246",
        "meta_object_id": "2025-301U",
        "meta_epoch": "2025-12-26T04:12:26.637120",
        "meta_mean_motion": 15.35920452,
        "meta_eccentricity": 0.00038168,
        "meta_inclination": 51.8739,
        "meta_ra_of_asc_node": 60.3003,
        "meta_arg_of_pericenter": 113.2152,
        "meta_mean_anomaly": 246.9236,
        "meta_ephemeris_type": 0,
        "meta_classification_type": "U",
        "meta_norad_cat_id": 67151,
        "meta_element_set_no": 999,
        "meta_rev_at_epoch": 245,
        "meta_bstar": 0.00056569431,
        "meta_mean_motion_dot": 0.00019754,
        "meta_mean_motion_ddot": 0,
        "tle_line1": "1 67151U 25301U   25360.17530830  .00019754  00000+0  56569-3 0  9993",
        "tle_line2": "2 67151  51.8739  60.3003 0003816 113.2152 246.9236 15.35920452  2459"
      },
      "geometry": {
        "type": "Point",
        "coordinates": [
          -131.7084958655833,
          11.690384116255114
        ]
      }
    }
  ]
}